GSAT0101 (PRN E11)      
1 37846U 11060A   20351.96665508 -.00000088  00000-0  00000-0 0  9999
2 37846  56.7390  36.2751 0002716 305.0660  54.9709  1.70475235 56885
GSAT0102 (PRN E12)      
1 37847U 11060B   20352.48452317 -.00000089  00000-0  00000-0 0  9991
2 37847  56.7389  36.2604 0004701 294.2166  69.8080  1.70475367 56903
GSAT0103 (PRN E19)      
1 38857U 12055A   20350.83514449  .00000054  00000-0  00000-0 0  9991
2 38857  55.0098 156.7890 0001254 229.4160 130.5540  1.70473694 50905
GSAT0104 (PRN E20)      
1 38858U 12055B   20353.11587915  .00000053  00000-0  00000-0 0  9993
2 38858  55.0106 156.7256 0000489 153.0063 206.9717  1.70473676 50943
GSAT0201 (PRN E18)      
1 40128U 14050A   20354.27900467 -.00000111  00000-0  00000+0 0  9997
2 40128  50.5342 354.0022 1653828 105.4208 273.4466  1.85519497 43047
GSAT0202 (PRN E14)      
1 40129U 14050B   20352.38606063 -.00000111  00000-0  00000-0 0  9994
2 40129  50.5688 353.1208 1651503 106.1720 272.6327  1.85520047 43233
GSAT0203 (PRN E26)      
1 40544U 15017A   20353.50754229 -.00000091  00000-0  00000+0 0  9998
2 40544  56.5328  36.3409 0005370 250.6878 109.3128  1.70475070 35658
GSAT0204 (PRN E22)      
1 40545U 15017B   20352.70192685 -.00000090  00000-0  00000-0 0  9992
2 40545  56.5389  36.3799 0003624 225.8945 134.1361  1.70475218 35645
GSAT0205 (PRN E24)      
1 40889U 15045A   20352.94393510 -.00000035  00000-0  00000-0 0  9999
2 40889  56.0116 277.0476 0005349   0.4728 359.5571  1.70474519 32799
GSAT0206 (PRN E30)      
1 40890U 15045B   20352.57687659 -.00000034  00000-0  00000-0 0  9999
2 40890  56.0113 277.0541 0003828 346.8321  13.1864  1.70474524 32814
GSAT0209 (PRN E09)      
1 41174U 15079A   20353.92364517  .00000057  00000-0  00000+0 0  9990
2 41174  55.0252 156.4032 0002564 341.6096  18.3573  1.70473464 31158
GSAT0208 (PRN E08)      
1 41175U 15079B   20352.38361346  .00000051  00000-0  00000-0 0  9992
2 41175  55.0226 156.4448 0001970 355.1366   4.8365  1.70473378 31132
GSAT0211 (PRN E02)      
1 41549U 16030A   20353.67810298 -.00000038  00000-0  00000+0 0  9998
2 41549  56.1535 276.8993 0004871 324.4894  35.5089  1.70474326 28440
GSAT0210 (PRN E01)      
1 41550U 16030B   20352.21121526 -.00000033  00000-0  00000-0 0  9994
2 41550  56.1541 276.9411 0003949 300.9778  59.0109  1.70474290 28433
GSAT0207 (PRN E07)      
1 41859U 16069A   20350.69690900  .00000054  00000-0  00000-0 0  9997
2 41859  54.6826 156.8094 0001979 320.0446  39.9225  1.70473313 25307
GSAT0212 (PRN E03)      
1 41860U 16069B   20352.89668448  .00000052  00000-0  00000-0 0  9993
2 41860  54.6811 156.7469 0002158  12.5472 347.4335  1.70473433 25436
GSAT0213 (PRN E04)      
1 41861U 16069C   20352.67580660  .00000051  00000-0  00000-0 0  9998
2 41861  54.6831 156.7572 0001116 260.0038  99.9590  1.70473465 25432
GSAT0214 (PRN E05)      
1 41862U 16069D   20352.23629857  .00000051  00000-0  00000-0 0  9993
2 41862  54.6814 156.7647 0000331 277.6062  82.3658  1.70473459 25418
GSAT0215 (PRN E21)      
1 43055U 17079A   20352.13992407 -.00000032  00000-0  00000-0 0  9994
2 43055  56.1296 276.7823 0003235 300.4054  59.5901  1.70473486 18752
GSAT0216 (PRN E25)      
1 43056U 17079B   20352.43255823 -.00000033  00000-0  00000+0 0  9992
2 43056  56.1296 276.7740 0004964 291.9356  68.0402  1.70473563 18746
GSAT0217 (PRN E27)      
1 43057U 17079C   20352.06605588 -.00000032  00000-0  00000-0 0  9999
2 43057  56.1284 276.7844 0004815 303.5209  56.4604  1.70473571 18756
GSAT0218 (PRN E31)      
1 43058U 17079D   20352.28605903 -.00000033  00000-0  00000+0 0  9995
2 43058  56.1279 276.7758 0005307 286.8883  73.0816  1.70473578 18750
GSAT0221 (PRN E15)      
1 43564U 18060A   20352.77154527 -.00000089  00000-0  00000-0 0  9995
2 43564  56.9185  36.0363 0005846 264.9334  95.0606  1.70476158 14946
GSAT0222 (PRN E33)      
1 43565U 18060B   20353.57797033 -.00000090  00000-0  00000+0 0  9991
2 43565  56.9211  36.0138 0005452 270.8209  89.1756  1.70476182 15002
GSAT0219 (PRN E36)      
1 43566U 18060C   20351.45204890 -.00000086  00000-0  00000-0 0  9997
2 43566  56.9206  36.0737 0005166 265.2558  94.7486  1.70476030 14945
GSAT0220 (PRN E13)      
1 43567U 18060D   20353.43168950 -.00000090  00000-0  00000-0 0  9999
2 43567  56.9213  36.0197 0005214 266.7341  93.2655  1.70476069 14960
